BEIJING 1               
1 28890U 05043A   25064.54752006  .00000751  00000+0  15588-3 0  9997
2 28890  98.2261 192.1040 0013781 311.4010  48.6006 14.63000325 32096
HUANJING 1A (HJ-1A)     
1 33320U 08041A   25064.55987504  .00002489  00000+0  31816-3 0  9998
2 33320  97.6399  65.1387 0018236 233.2764 126.6775 14.82140799889041
HUANJING 1B (HJ-1B)     
1 33321U 08041B   25064.56430749  .00002183  00000+0  27971-3 0  9992
2 33321  97.6301  69.4516 0035723 281.2070  78.5129 14.81839280889068
YAOGAN-4                
1 33446U 08061A   25064.40998032  .00002480  00000+0  32183-3 0  9990
2 33446  97.8986 357.9271 0015397 151.5059 208.6999 14.81582217876210
DEIMOS-1                
1 35681U 09041A   25064.51184068  .00001428  00000+0  22258-3 0  9993
2 35681  97.6915 238.7965 0000120 194.5210 165.5996 14.74341601837805
UK-DMC 2                
1 35683U 09041C   25064.54838133  .00001867  00000+0  28630-3 0  9994
2 35683  97.8140 208.2906 0001152  80.5017 279.6322 14.74768099837467
DMC3-FM1                
1 40715U 15032A   25064.60248291  .00001287  00000+0  15768-3 0  9994
2 40715  97.7143 301.4798 0006332 143.1358 217.0294 14.84809336520357
DMC3-FM2                
1 40716U 15032B   25064.55730455  .00001324  00000+0  16201-3 0  9992
2 40716  97.7199 302.6837 0008033 150.8409 209.3256 14.84824348520349
DMC3-FM3                
1 40717U 15032C   25064.59857683  .00001285  00000+0  15774-3 0  9990
2 40717  97.7251 304.1264 0009496 149.3145 210.8627 14.84712003520358
